OBJECT_NAME,OBJECT_ID,EPOCH,MEAN_MOTION,ECCENTRICITY,INCLINATION,RA_OF_ASC_NODE,ARG_OF_PERICENTER,MEAN_ANOMALY,EPHEMERIS_TYPE,CLASSIFICATION_TYPE,NORAD_CAT_ID,ELEMENT_SET_NO,REV_AT_EPOCH,BSTAR,MEAN_MOTION_DOT,MEAN_MOTION_DDOT
ONEWEB-0522,2022-138AD,2026-07-02T07:20:25.077120,13.19725239,.00017859,87.9195,301.9472,103.9113,256.2219,0,U,54140,999,17880,.39380919E-4,.29E-6,0
ONEWEB-0523,2022-138AE,2026-07-02T06:09:16.157664,13.20772379,.00026338,87.9199,271.4380,86.8171,273.3263,0,U,54141,999,18129,.22206619E-3,.103E-5,0
ONEWEB-0524,2022-138AF,2026-07-02T05:54:43.760448,13.20772130,.00029037,87.9197,271.4369,103.1459,256.9998,0,U,54142,999,18129,.12568366E-3,.64E-6,0
ONEWEB-0525,2022-138AG,2026-07-02T05:58:30.721152,13.19726768,.00018871,87.9192,301.9655,112.3424,247.7909,0,U,54143,999,17881,.12586288E-3,.63E-6,0
ONEWEB-0526,2022-138AH,2026-07-02T06:46:16.254912,13.19726873,.00019971,87.9194,301.9596,105.1050,255.0304,0,U,54144,999,17879,.3493904E-3,.153E-5,0
ONEWEB-0529,2022-138AJ,2026-07-02T06:50:50.768448,13.19725783,.00018814,87.9184,301.9669,107.7317,252.4021,0,U,54145,999,17881,.23623894E-3,.108E-5,0
ONEWEB-0531,2022-138AK,2026-07-02T05:35:19.943808,13.20773237,.00028051,87.9193,271.4370,90.9033,269.2422,0,U,54146,999,18129,.29913728E-3,.135E-5,0
ONEWEB-0535,2022-138AL,2026-07-02T02:11:03.934464,13.19725908,.00020832,87.9191,301.9910,92.2819,267.8552,0,U,54147,999,17880,-.19627572E-4,.5E-7,0
ONEWEB-0536,2022-138AM,2026-07-02T07:05:01.582080,13.20772621,.00030201,87.9185,271.4457,92.5285,267.6194,0,U,54148,999,18129,.34162015E-4,.27E-6,0
ONEWEB-0527,2022-166A,2026-07-02T03:56:56.235264,13.21824790,.00020569,87.9245,241.0169,99.6134,260.5232,0,U,54642,999,17351,.28266078E-3,.13E-5,0
ONEWEB-0528,2022-166B,2026-07-02T03:58:07.880736,13.21825901,.00020507,87.9246,241.0192,104.2816,255.8546,0,U,54643,999,17352,.74198123E-4,.44E-6,0
ONEWEB-0539,2022-166C,2026-07-02T04:52:36.825600,13.21828168,.00018666,87.9249,240.9844,94.1045,266.0302,0,U,54644,999,17352,.19965924E-3,.95E-6,0
ONEWEB-0540,2022-166D,2026-07-02T05:02:29.613408,13.21828145,.00019704,87.9241,241.0121,94.9552,265.1806,0,U,54645,999,17351,.22824798E-3,.107E-5,0
ONEWEB-0542,2022-166E,2026-07-02T05:07:10.251840,13.21825403,.00018326,87.9252,240.9814,91.3916,268.7428,0,U,54646,999,17352,-.12330503E-3,-.38E-6,0
ONEWEB-0545,2022-166F,2026-07-02T04:16:20.209152,13.21801268,.0001732,87.9237,240.9986,79.6692,280.4637,0,U,54647,999,17348,-.65807603E-2,-.2703E-4,0
ONEWEB-0580,2022-166G,2026-07-02T05:28:54.818400,13.21827676,.00019004,87.9239,240.9885,85.6340,274.5011,0,U,54648,999,17353,.78194897E-4,.45E-6,0
ONEWEB-0582,2022-166H,2026-07-02T04:40:30.427104,13.21827929,.00018831,87.9243,240.9878,85.5026,274.6323,0,U,54649,999,17350,.61262835E-4,.38E-6,0
ONEWEB-0583,2022-166J,2026-07-02T04:57:29.043360,13.21825238,.00019819,87.9247,241.0091,94.5527,265.5833,0,U,54650,999,17351,-.97217645E-4,-.27E-6,0
ONEWEB-0584,2022-166K,2026-07-02T05:26:31.289856,13.21824361,.00020328,87.9240,240.9900,94.9602,265.1764,0,U,54651,999,17350,.12910995E-3,.66E-6,0
ONEWEB-0585,2022-166L,2026-07-02T04:11:26.608992,13.21828419,.00021254,87.9247,240.9881,101.3553,258.7820,0,U,54652,999,17350,.40257827E-3,.179E-5,0
ONEWEB-0586,2022-166M,2026-07-02T04:30:50.461056,13.21825860,.00019283,87.9246,241.0106,94.4487,265.6867,0,U,54653,999,17350,.13482141E-3,.69E-6,0
ONEWEB-0587,2022-166N,2026-07-02T04:45:22.529952,13.21825602,.0002283,87.9255,240.9837,104.5436,255.5951,0,U,54654,999,17366,.22208912E-3,.105E-5,0
ONEWEB-0589,2022-166P,2026-07-02T04:25:59.783808,13.21825633,.00018822,87.9240,240.9965,72.7191,287.4149,0,U,54655,999,17352,.24574869E-3,.115E-5,0
ONEWEB-0590,2022-166Q,2026-07-02T05:02:06.668160,13.21825446,.00024462,87.9251,240.9835,91.2057,268.9357,0,U,54656,999,17351,.51612149E-4,.34E-6,0
ONEWEB-0591,2022-166R,2026-07-02T05:19:16.441248,13.21827637,.0002088,87.9240,240.9943,95.6343,264.5029,0,U,54657,999,17354,.48469939E-4,.33E-6,0
ONEWEB-0592,2022-166S,2026-07-02T05:24:04.857408,13.21827744,.00020346,87.9249,240.9732,97.0354,263.1011,0,U,54658,999,17342,-.1808947E-3,-.62E-6,0
ONEWEB-0593,2022-166T,2026-07-02T04:06:36.521856,13.21825748,.00019042,87.9244,240.9945,96.5264,263.6087,0,U,54659,999,17352,.15942533E-3,.79E-6,0
ONEWEB-0594,2022-166U,2026-07-02T02:46:38.735904,13.21828153,.0002069,87.9241,241.0217,102.2787,257.8578,0,U,54660,999,17353,.21557933E-3,.102E-5,0
ONEWEB-0595,2022-166V,2026-07-02T04:01:46.030368,13.21824763,.00022164,87.9253,240.9931,101.6077,258.5306,0,U,54661,999,17351,.17545951E-3,.85E-6,0
ONEWEB-0596,2022-166W,2026-07-02T05:14:24.954432,13.21828252,.00021617,87.9242,240.9943,98.4209,261.7170,0,U,54662,999,17352,-.38083449E-4,-.3E-7,0
