ONEWEB-0522             
1 54140U 22138AD  26183.30584580  .00000029  00000+0  39381-4 0  9991
2 54140  87.9195 301.9472 0001785 103.9113 256.2219 13.19725239178803
ONEWEB-0523             
1 54141U 22138AE  26183.25643701  .00000103  00000+0  22207-3 0  9998
2 54141  87.9199 271.4380 0002633  86.8171 273.3263 13.20772379181298
ONEWEB-0524             
1 54142U 22138AF  26183.24633982  .00000064  00000+0  12568-3 0  9993
2 54142  87.9197 271.4369 0002903 103.1459 256.9998 13.20772130181293
ONEWEB-0525             
1 54143U 22138AG  26183.24896668  .00000063  00000+0  12586-3 0  9995
2 54143  87.9192 301.9655 0001887 112.3424 247.7909 13.19726768178818
ONEWEB-0526             
1 54144U 22138AH  26183.28213258  .00000153  00000+0  34939-3 0  9994
2 54144  87.9194 301.9596 0001997 105.1050 255.0304 13.19726873178797
ONEWEB-0529             
1 54145U 22138AJ  26183.28530982  .00000108  00000+0  23624-3 0  9990
2 54145  87.9184 301.9669 0001881 107.7317 252.4021 13.19725783178813
ONEWEB-0531             
1 54146U 22138AK  26183.23286972  .00000135  00000+0  29914-3 0  9991
2 54146  87.9193 271.4370 0002805  90.9033 269.2422 13.20773237181295
ONEWEB-0535             
1 54147U 22138AL  26183.09101776  .00000005  00000+0 -19628-4 0  9993
2 54147  87.9191 301.9910 0002083  92.2819 267.8552 13.19725908178809
ONEWEB-0536             
1 54148U 22138AM  26183.29515720  .00000027  00000+0  34162-4 0  9997
2 54148  87.9185 271.4457 0003020  92.5285 267.6194 13.20772621181295
ONEWEB-0527             
1 54642U 22166A   26183.16453976  .00000130  00000+0  28266-3 0  9999
2 54642  87.9245 241.0169 0002056  99.6134 260.5232 13.21824790173510
ONEWEB-0528             
1 54643U 22166B   26183.16536899  .00000044  00000+0  74198-4 0  9996
2 54643  87.9246 241.0192 0002050 104.2816 255.8546 13.21825901173523
ONEWEB-0539             
1 54644U 22166C   26183.20320400  .00000095  00000+0  19966-3 0  9998
2 54644  87.9249 240.9844 0001866  94.1045 266.0302 13.21828168173526
ONEWEB-0540             
1 54645U 22166D   26183.21006497  .00000107  00000+0  22825-3 0  9999
2 54645  87.9241 241.0121 0001970  94.9552 265.1806 13.21828145173519
ONEWEB-0542             
1 54646U 22166E   26183.21331310 -.00000038  00000+0 -12331-3 0  9991
2 54646  87.9252 240.9814 0001832  91.3916 268.7428 13.21825403173525
ONEWEB-0545             
1 54647U 22166F   26183.17801168 -.00002703  00000+0 -65808-2 0  9997
2 54647  87.9237 240.9986 0001732  79.6692 280.4637 13.21801268173489
ONEWEB-0580             
1 54648U 22166G   26183.22841225  .00000045  00000+0  78195-4 0  9992
2 54648  87.9239 240.9885 0001900  85.6340 274.5011 13.21827676173531
ONEWEB-0582             
1 54649U 22166H   26183.19479661  .00000038  00000+0  61263-4 0  9990
2 54649  87.9243 240.9878 0001883  85.5026 274.6323 13.21827929173504
ONEWEB-0583             
1 54650U 22166J   26183.20658615 -.00000027  00000+0 -97218-4 0  9991
2 54650  87.9247 241.0091 0001981  94.5527 265.5833 13.21825238173511
ONEWEB-0584             
1 54651U 22166K   26183.22675104  .00000066  00000+0  12911-3 0  9993
2 54651  87.9240 240.9900 0002032  94.9602 265.1764 13.21824361173502
ONEWEB-0585             
1 54652U 22166L   26183.17461353  .00000179  00000+0  40258-3 0  9997
2 54652  87.9247 240.9881 0002125 101.3553 258.7820 13.21828419173508
ONEWEB-0586             
1 54653U 22166M   26183.18808404  .00000069  00000+0  13482-3 0  9998
2 54653  87.9246 241.0106 0001928  94.4487 265.6867 13.21825860173503
ONEWEB-0587             
1 54654U 22166N   26183.19817743  .00000105  00000+0  22209-3 0  9994
2 54654  87.9255 240.9837 0002283 104.5436 255.5951 13.21825602173668
ONEWEB-0589             
1 54655U 22166P   26183.18471972  .00000115  00000+0  24575-3 0  9993
2 54655  87.9240 240.9965 0001882  72.7191 287.4149 13.21825633173525
ONEWEB-0590             
1 54656U 22166Q   26183.20979940  .00000034  00000+0  51612-4 0  9998
2 54656  87.9251 240.9835 0002446  91.2057 268.9357 13.21825446173514
ONEWEB-0591             
1 54657U 22166R   26183.22171807  .00000033  00000+0  48470-4 0  9994
2 54657  87.9240 240.9943 0002088  95.6343 264.5029 13.21827637173546
ONEWEB-0592             
1 54658U 22166S   26183.22505622 -.00000062  00000+0 -18089-3 0  9997
2 54658  87.9249 240.9732 0002034  97.0354 263.1011 13.21827744173423
ONEWEB-0593             
1 54659U 22166T   26183.17125604  .00000079  00000+0  15943-3 0  9992
2 54659  87.9244 240.9945 0001904  96.5264 263.6087 13.21825748173525
ONEWEB-0594             
1 54660U 22166U   26183.11572611  .00000102  00000+0  21558-3 0  9998
2 54660  87.9241 241.0217 0002069 102.2787 257.8578 13.21828153173530
ONEWEB-0595             
1 54661U 22166V   26183.16789387  .00000085  00000+0  17546-3 0  9996
2 54661  87.9253 240.9931 0002216 101.6077 258.5306 13.21824763173512
ONEWEB-0596             
1 54662U 22166W   26183.21834438 -.00000003  00000+0 -38083-4 0  9993
2 54662  87.9242 240.9943 0002161  98.4209 261.7170 13.21828252173526
